XRISM                   
1 57800U 23137A   26089.44066655  .00007385  00000+0  41671-3 0  9991
2 57800  31.0018 149.4202 0007962 247.7417 112.2377 15.11742655140930
ACS3                    
1 59588U 24077B   26089.51593997  .00026365  00000+0  20678-1 0  9993
2 59588  97.1968  25.9467 0072893  29.2671 331.2548 13.90577879 97093
SZ-21 MODULE            
1 66515U 25246C   26089.30993578  .00048483  00000+0  38893-3 0  9991
2 66515  41.4738  76.2734 0002020 214.1142 145.9571 15.70166693 21313
